{"type": "FeatureCollection", "features": [ {"type": "Feature", "properties": {"norad_id": 33745, "name": "FENGYUN 1C DEB", "group": "fengyun-1c-debris", "lat": 24.07123725070122, "lon": -153.8805021170554, "alt_km": 833.6680673377177, "timestamp": "2025-12-10T21:43:22.375113+00:00", "meta": {"OBJECT_NAME": "FENGYUN 1C DEB", "OBJECT_ID": "1999-025DJJ", "EPOCH": "2025-12-09T12:54:35.581248", "MEAN_MOTION": 14.22286162, "ECCENTRICITY": 0.0053634, "INCLINATION": 99.1144, "RA_OF_ASC_NODE": 20.5943, "ARG_OF_PERICENTER": 275.368, "MEAN_ANOMALY": 84.1379, "EPHEMERIS_TYPE": 0, "CLASSIFICATION_TYPE": "U", "NORAD_CAT_ID": 33745, "ELEMENT_SET_NO": 999, "REV_AT_EPOCH": 65956, "BSTAR": 0.0019638, "MEAN_MOTION_DOT": 4.382e-05, "MEAN_MOTION_DDOT": 0}, "tle": {"line1": "1 33745U 99025DJJ 25343.53791182  .00004382  00000+0  19638-2 0  9995", "line2": "2 33745  99.1144  20.5943 0053634 275.3680  84.1379 14.22286162659564"}}, "geometry": {"type": "Point", "coordinates": [-153.8805021170554, 24.07123725070122]}}, {"type": "Feature", "properties": {"norad_id": 33747, "name": "FENGYUN 1C DEB", "group": "fengyun-1c-debris", "lat": 74.46644790807453, "lon": -65.25464220917223, "alt_km": 858.2766621414239, "timestamp": "2025-12-10T21:43:22.375124+00:00", "meta": {"OBJECT_NAME": "FENGYUN 1C DEB", "OBJECT_ID": "1999-025DJL", "EPOCH": "2025-12-07T00:03:01.560960", "MEAN_MOTION": 14.17338054, "ECCENTRICITY": 0.00899301, "INCLINATION": 99.098, "RA_OF_ASC_NODE": 75.547, "ARG_OF_PERICENTER": 232.9564, "MEAN_ANOMALY": 126.336, "EPHEMERIS_TYPE": 0, "CLASSIFICATION_TYPE": "U", "NORAD_CAT_ID": 33747, "ELEMENT_SET_NO": 999, "REV_AT_EPOCH": 90051, "BSTAR": 0.0039970984, "MEAN_MOTION_DOT": 8.373e-05, "MEAN_MOTION_DDOT": 0}, "tle": {"line1": "1 33747U 99025DJL 25341.00210140  .00008373  00000+0  39971-2 0  9993", "line2": "2 33747  99.0980  75.5470 0089930 232.9564 126.3360 14.17338054900511"}}, "geometry": {"type": "Point", "coordinates": [-65.25464220917223, 74.46644790807453]}}, {"type": "Feature", "properties": {"norad_id": 33748, "name": "FENGYUN 1C DEB", "group": "fengyun-1c-debris", "lat": 23.96913816678061, "lon": 32.225294048400066, "alt_km": 801.8253171103561, "timestamp": "2025-12-10T21:43:22.375134+00:00", "meta": {"OBJECT_NAME": "FENGYUN 1C DEB", "OBJECT_ID": "1999-025DJM", "EPOCH": "2025-12-10T09:52:23.069568", "MEAN_MOTION": 14.32257214, "ECCENTRICITY": 0.00344762, "INCLINATION": 98.5863, "RA_OF_ASC_NODE": 35.5881, "ARG_OF_PERICENTER": 248.0164, "MEAN_ANOMALY": 111.7354, "EPHEMERIS_TYPE": 0, "CLASSIFICATION_TYPE": "U", "NORAD_CAT_ID": 33748, "ELEMENT_SET_NO": 999, "REV_AT_EPOCH": 91360, "BSTAR": 0.0019433636, "MEAN_MOTION_DOT": 5.235e-05, "MEAN_MOTION_DDOT": 0}, "tle": {"line1": "1 33748U 99025DJM 25344.41137812  .00005235  00000+0  19434-2 0  9992", "line2": "2 33748  98.5863  35.5881 0034476 248.0164 111.7354 14.32257214913607"}}, "geometry": {"type": "Point", "coordinates": [32.225294048400066, 23.96913816678061]}}, {"type": "Feature", "properties": {"norad_id": 35088, "name": "FENGYUN 1C DEB", "group": "fengyun-1c-debris", "lat": -56.91450357722603, "lon": -25.77155063256174, "alt_km": 687.7842041994627, "timestamp": "2025-12-10T21:43:22.375144+00:00", "meta": {"OBJECT_NAME": "FENGYUN 1C DEB", "OBJECT_ID": "1999-025DJQ", "EPOCH": "2025-12-05T18:07:13.251936", "MEAN_MOTION": 14.11541767, "ECCENTRICITY": 0.0269112, "INCLINATION": 94.6213, "RA_OF_ASC_NODE": 158.6962, "ARG_OF_PERICENTER": 224.9702, "MEAN_ANOMALY": 132.9405, "EPHEMERIS_TYPE": 0, "CLASSIFICATION_TYPE": "U", "NORAD_CAT_ID": 35088, "ELEMENT_SET_NO": 999, "REV_AT_EPOCH": 58701, "BSTAR": 0.013442762, "MEAN_MOTION_DOT": 0.00034432, "MEAN_MOTION_DDOT": 0}, "tle": {"line1": "1 35088U 99025DJQ 25339.75501449  .00034432  00000+0  13443-1 0  9997", "line2": "2 35088  94.6213 158.6962 0269112 224.9702 132.9405 14.11541767587017"}}, "geometry": {"type": "Point", "coordinates": [-25.77155063256174, -56.91450357722603]}}, {"type": "Feature", "properties": {"norad_id": 35089, "name": "FENGYUN 1C DEB", "group": "fengyun-1c-debris", "lat": 81.10274253176381, "lon": -111.05206318201533, "alt_km": 800.4718379069782, "timestamp": "2025-12-10T21:43:22.375154+00:00", "meta": {"OBJECT_NAME": "FENGYUN 1C DEB", "OBJECT_ID": "1999-025DJR", "EPOCH": "2025-12-09T11:27:18.732960", "MEAN_MOTION": 14.19406772, "ECCENTRICITY": 0.00291418, "INCLINATION": 98.5584, "RA_OF_ASC_NODE": 353.4263, "ARG_OF_PERICENTER": 74.1039, "MEAN_ANOMALY": 286.3346, "EPHEMERIS_TYPE": 0, "CLASSIFICATION_TYPE": "U", "NORAD_CAT_ID": 35089, "ELEMENT_SET_NO": 999, "REV_AT_EPOCH": 60829, "BSTAR": 0.00082160985, "MEAN_MOTION_DOT": 1.693e-05, "MEAN_MOTION_DDOT": 0}, "tle": {"line1": "1 35089U 99025DJR 25343.47730015  .00001693  00000+0  82161-3 0  9993", "line2": "2 35089  98.5584 353.4263 0029141  74.1039 286.3346 14.19406772608291"}}, "geometry": {"type": "Point", "coordinates": [-111.05206318201533, 81.10274253176381]}}, {"type": "Feature", "properties": {"norad_id": 35090, "name": "FENGYUN 1C DEB", "group": "fengyun-1c-debris", "lat": 63.65140485660689, "lon": -21.563245892398452, "alt_km": 797.9087815521143, "timestamp": "2025-12-10T21:43:22.375164+00:00", "meta": {"OBJECT_NAME": "FENGYUN 1C DEB", "OBJECT_ID": "1999-025DJS", "EPOCH": "2025-11-28T11:16:09.482016", "MEAN_MOTION": 14.17474979, "ECCENTRICITY": 0.00568935, "INCLINATION": 99.1993, "RA_OF_ASC_NODE": 344.6679, "ARG_OF_PERICENTER": 56.1043, "MEAN_ANOMALY": 304.5524, "EPHEMERIS_TYPE": 0, "CLASSIFICATION_TYPE": "U", "NORAD_CAT_ID": 35090, "ELEMENT_SET_NO": 999, "REV_AT_EPOCH": 66048, "BSTAR": 0.0014922384, "MEAN_MOTION_DOT": 3.028e-05, "MEAN_MOTION_DDOT": 0}, "tle": {"line1": "1 35090U 99025DJS 25332.46955419  .00003028  00000+0  14922-2 0  9992", "line2": "2 35090  99.1993 344.6679 0056893  56.1043 304.5524 14.17474979660488"}}, "geometry": {"type": "Point", "coordinates": [-21.563245892398452, 63.65140485660689]}}, {"type": "Feature", "properties": {"norad_id": 35091, "name": "FENGYUN 1C DEB", "group": "fengyun-1c-debris", "lat": 69.07070362976441, "lon": -67.57909675976967, "alt_km": 715.788007882993, "timestamp": "2025-12-10T21:43:22.375174+00:00", "meta": {"OBJECT_NAME": "FENGYUN 1C DEB", "OBJECT_ID": "1999-025DJT", "EPOCH": "2025-12-10T06:26:06.539136", "MEAN_MOTION": 14.61449976, "ECCENTRICITY": 0.0048805, "INCLINATION": 98.5948, "RA_OF_ASC_NODE": 88.4647, "ARG_OF_PERICENTER": 299.5603, "MEAN_ANOMALY": 60.0737, "EPHEMERIS_TYPE": 0, "CLASSIFICATION_TYPE": "U", "NORAD_CAT_ID": 35091, "ELEMENT_SET_NO": 999, "REV_AT_EPOCH": 89891, "BSTAR": 0.0043163, "MEAN_MOTION_DOT": 0.00021756, "MEAN_MOTION_DDOT": 0}, "tle": {"line1": "1 35091U 99025DJT 25344.26813124  .00021756  00000+0  43163-2 0  9997", "line2": "2 35091  98.5948  88.4647 0048805 299.5603  60.0737 14.61449976898918"}}, "geometry": {"type": "Point", "coordinates": [-67.57909675976967, 69.07070362976441]}}, {"type": "Feature", "properties": {"norad_id": 35102, "name": "FENGYUN 1C DEB", "group": "fengyun-1c-debris", "lat": 60.71132989838256, "lon": -169.3450829504105, "alt_km": 748.8158022594234, "timestamp": "2025-12-10T21:43:22.375184+00:00", "meta": {"OBJECT_NAME": "FENGYUN 1C DEB", "OBJECT_ID": "1999-025DKE", "EPOCH": "2025-12-08T18:45:28.418688", "MEAN_MOTION": 14.288571, "ECCENTRICITY": 0.00608821, "INCLINATION": 98.4802, "RA_OF_ASC_NODE": 353.1647, "ARG_OF_PERICENTER": 103.2317, "MEAN_ANOMALY": 257.5666, "EPHEMERIS_TYPE": 0, "CLASSIFICATION_TYPE": "U", "NORAD_CAT_ID": 35102, "ELEMENT_SET_NO": 999, "REV_AT_EPOCH": 64856, "BSTAR": 0.00079932448, "MEAN_MOTION_DOT": 2.015e-05, "MEAN_MOTION_DDOT": 0}, "tle": {"line1": "1 35102U 99025DKE 25342.78157892  .00002015  00000+0  79932-3 0  9999", "line2": "2 35102  98.4802 353.1647 0060882 103.2317 257.5666 14.28857100648566"}}, "geometry": {"type": "Point", "coordinates": [-169.3450829504105, 60.71132989838256]}}, {"type": "Feature", "properties": {"norad_id": 35104, "name": "FENGYUN 1C DEB", "group": "fengyun-1c-debris", "lat": -21.910322533754705, "lon": -4.8515994298944625, "alt_km": 851.4160366638625, "timestamp": "2025-12-10T21:43:22.375194+00:00", "meta": {"OBJECT_NAME": "FENGYUN 1C DEB", "OBJECT_ID": "1999-025DKG", "EPOCH": "2025-12-06T18:54:45.260640", "MEAN_MOTION": 14.20313369, "ECCENTRICITY": 0.00310538, "INCLINATION": 98.5964, "RA_OF_ASC_NODE": 347.6591, "ARG_OF_PERICENTER": 157.8508, "MEAN_ANOMALY": 20.7382, "EPHEMERIS_TYPE": 0, "CLASSIFICATION_TYPE": "U", "NORAD_CAT_ID": 35104, "ELEMENT_SET_NO": 999, "REV_AT_EPOCH": 89682, "BSTAR": 0.00068235303, "MEAN_MOTION_DOT": 1.425e-05, "MEAN_MOTION_DDOT": 0}, "tle": {"line1": "1 35104U 99025DKG 25340.78802385  .00001425  00000+0  68235-3 0  9991", "line2": "2 35104  98.5964 347.6591 0031053 157.8508  20.7382 14.20313369896824"}}, "geometry": {"type": "Point", "coordinates": [-4.8515994298944625, -21.910322533754705]}}, {"type": "Feature", "properties": {"norad_id": 35105, "name": "FENGYUN 1C DEB", "group": "fengyun-1c-debris", "lat": -30.9087259147599, "lon": 140.4474146215989, "alt_km": 817.109868712656, "timestamp": "2025-12-10T21:43:22.375205+00:00", "meta": {"OBJECT_NAME": "FENGYUN 1C DEB", "OBJECT_ID": "1999-025DKH", "EPOCH": "2025-12-09T16:30:45.101664", "MEAN_MOTION": 14.45366137, "ECCENTRICITY": 0.01128462, "INCLINATION": 98.9435, "RA_OF_ASC_NODE": 324.5756, "ARG_OF_PERICENTER": 63.4529, "MEAN_ANOMALY": 297.8177, "EPHEMERIS_TYPE": 0, "CLASSIFICATION_TYPE": "U", "NORAD_CAT_ID": 35105, "ELEMENT_SET_NO": 999, "REV_AT_EPOCH": 94449, "BSTAR": 0.00060980624, "MEAN_MOTION_DOT": 2.267e-05, "MEAN_MOTION_DDOT": 0}, "tle": {"line1": "1 35105U 99025DKH 25343.68802201  .00002267  00000+0  60981-3 0  9996", "line2": "2 35105  98.9435 324.5756 0112846  63.4529 297.8177 14.45366137944498"}}, "geometry": {"type": "Point", "coordinates": [140.4474146215989, -30.9087259147599]}}]}